[{"OBJECT_NAME":"SAUDISAT 5B","OBJECT_ID":"2018-102C","EPOCH":"2026-03-09T22:59:17.457216","MEAN_MOTION":15.27248504,"ECCENTRICITY":0.00120577,"INCLINATION":97.3281,"RA_OF_ASC_NODE":135.3629,"ARG_OF_PERICENTER":124.0958,"MEAN_ANOMALY":236.1427,"EPHEMERIS_TYPE":0,"CLASSIFICATION_TYPE":"U","NORAD_CAT_ID":43833,"ELEMENT_SET_NO":999,"REV_AT_EPOCH":40064,"BSTAR":0.00024926623,"MEAN_MOTION_DOT":6.596e-5,"MEAN_MOTION_DDOT":0},{"OBJECT_NAME":"STARLINK-35354","OBJECT_ID":"2025-262X","EPOCH":"2026-03-09T00:04:53.029056","MEAN_MOTION":15.27598085,"ECCENTRICITY":0.00024893,"INCLINATION":43.0041,"RA_OF_ASC_NODE":299.8515,"ARG_OF_PERICENTER":252.6156,"MEAN_ANOMALY":107.4424,"EPHEMERIS_TYPE":0,"CLASSIFICATION_TYPE":"U","NORAD_CAT_ID":66477,"ELEMENT_SET_NO":999,"REV_AT_EPOCH":1880,"BSTAR":0.0014602656,"MEAN_MOTION_DOT":0.00040164,"MEAN_MOTION_DDOT":0}]
